{
    "links": {
        "self": "http://www.neowsapp.com/rest/v1/neo/3785690?api_key=iIulBulltgU6a56xZRHN4H3l9WmuAYTsLGpBGhQ2"
    },
    "id": "3785690",
    "neo_reference_id": "3785690",
    "name": "(2017 TM2)",
    "designation": "2017 TM2",
    "nasa_jpl_url": "http://ssd.jpl.nasa.gov/sbdb.cgi?sstr=3785690",
    "absolute_magnitude_h": 23.0,
    "estimated_diameter": {
        "kilometers": {
            "estimated_diameter_min": 0.0667659413,
            "estimated_diameter_max": 0.1492931834
        },
        "meters": {
            "estimated_diameter_min": 66.7659413495,
            "estimated_diameter_max": 149.2931834393
        },
        "miles": {
            "estimated_diameter_min": 0.0414864197,
            "estimated_diameter_max": 0.0927664547
        },
        "feet": {
            "estimated_diameter_min": 219.0483710172,
            "estimated_diameter_max": 489.807047955
        }
    },
    "is_potentially_hazardous_asteroid": false,
    "close_approach_data": [
        {
            "close_approach_date": "2017-10-11",
            "close_approach_date_full": "2017-Oct-11 13:13",
            "epoch_date_close_approach": 1507727580000,
            "relative_velocity": {
                "kilometers_per_second": "11.6924592888",
                "kilometers_per_hour": "42092.8534396858",
                "miles_per_hour": "26154.8621831203"
            },
            "miss_distance": {
                "astronomical": "0.0932079598",
                "lunar": "36.2578963622",
                "kilometers": "13943712.253125626",
                "miles": "8664221.0288245988"
            },
            "orbiting_body": "Earth"
        }
    ],
    "orbital_data": {
        "orbit_id": "10",
        "orbit_determination_date": "2017-11-06 06:17:50",
        "first_observation_date": "2017-10-10",
        "last_observation_date": "2017-10-22",
        "data_arc_in_days": 12,
        "observations_used": 55,
        "orbit_uncertainty": "8",
        "minimum_orbit_intersection": ".00634912",
        "jupiter_tisserand_invariant": "3.019",
        "epoch_osculation": "2458038.5",
        "eccentricity": ".6348528106259664",
        "semi_major_axis": "2.740008174348739",
        "inclination": "2.594849820797874",
        "ascending_node_longitude": "344.2298876881648",
        "orbital_period": "1656.632642760173",
        "perihelion_distance": "1.000506283725319",
        "perihelion_argument": "2.497916416549038",
        "aphelion_distance": "4.479510064972159",
        "perihelion_time": "2458015.856723194201",
        "mean_anomaly": "4.92057167031673",
        "mean_motion": ".21730828592161",
        "equinox": "J2000",
        "orbit_class": {
            "orbit_class_type": "APO",
            "orbit_class_description": "Near-Earth asteroid orbits which cross the Earth’s orbit similar to that of 1862 Apollo",
            "orbit_class_range": "a (semi-major axis) > 1.0 AU; q (perihelion) < 1.017 AU"
        }
    },
    "is_sentry_object": false
}